*******************************************************************************
JPL/HORIZONS                142 Polana (A875 BA)           2020-Jun-20 08:19:59
Rec #:     142 (+COV) Soln.date: 2020-Feb-22_15:18:14   # obs: 3234 (1898-2019)
 
IAU76/J2000 helio. ecliptic osc. elements (au, days, deg., period=Julian yrs):
 
  EPOCH=  2455746.5 ! 2011-Jul-04.00 (TDB)         Residual RMS= .33396
   EC= .1363598134434879   QR= 2.088288558269892   TP= 2455687.7477337555
   OM= 291.3219229309797   W=  291.6882101554116   IN= 2.237341290939687
   A= 2.418007627222944    MA= 15.40076157709479   ADIST= 2.747726696175995
   PER= 3.76006            N= .262130504           ANGMOM= .026499314
   DAN= 2.2592             DDN= 2.49898            L= 223.0251516
   B= -2.0788845           MOID= 1.08037996        TP= 2011-May-06.2477337555
 
Asteroid physical parameters (km, seconds, rotational period in hours):
   GM= n.a.                RAD= 27.406             ROTPER= 9.764
   H= 10.3                 G= .150                 B-V= .621
                           ALBEDO= .047            STYP= B
 
ASTEROID comments: 
1: soln ref.= JPL#39, OCC=0
2: source=ORB
*******************************************************************************
 
 
*******************************************************************************
Ephemeris / WWW_USER Sat Jun 20 08:19:59 2020 Pasadena, USA      / Horizons
*******************************************************************************
Target body name: 142 Polana (A875 BA)            {source: JPL#39}
Center body name: Solar System Barycenter (0)     {source: DE431}
Center-site name: BODY CENTER
*******************************************************************************
Start time      : A.D. 1969-Jun-28 00:00:00.0000 TDB
Stop  time      : A.D. 2071-May-04 00:00:00.0000 TDB
Step-size       : 7200 minutes
*******************************************************************************
Center geodetic : 0.00000000,0.00000000,0.0000000 {E-lon(deg),Lat(deg),Alt(km)}
Center cylindric: 0.00000000,0.00000000,0.0000000 {E-lon(deg),Dxy(km),Dz(km)}
Center radii    : (undefined)                                                  
Small perturbers: Yes                             {source: SB431-N16}
Output units    : AU-D
Output type     : GEOMETRIC cartesian states
Output format   : 2 (position and velocity)
Reference frame : Ecliptic of J2000.0
*******************************************************************************
Initial IAU76/J2000 heliocentric ecliptic osculating elements (au, days, deg.):
  EPOCH=  2455746.5 ! 2011-Jul-04.00 (TDB)         Residual RMS= .33396        
   EC= .1363598134434879   QR= 2.088288558269892   TP= 2455687.7477337555      
   OM= 291.3219229309797   W=  291.6882101554116   IN= 2.237341290939687       
  Equivalent ICRF heliocentric equatorial cartesian coordinates (au, au/d):
   X=-9.422313721401708E-01  Y=-1.700870663268142E+00  Z=-8.039074120786407E-01
  VX= 1.101451647487754E-02 VY=-5.741920288371465E-03 VZ=-2.147296778403088E-03
Asteroid physical parameters (km, seconds, rotational period in hours):        
   GM= n.a.                RAD= 27.406             ROTPER= 9.764               
   H= 10.3                 G= .150                 B-V= .621                   
                           ALBEDO= .047            STYP= B                     
*******************************************************************************
            JDTDB,            Calendar Date (TDB),        delta-T,                      X,                      Y,                      Z,                     VX,                     VY,                     VZ,
******************************************************************************************************************************************************************************************************************
$$SOE
2459580.500000000, A.D. 2022-Jan-01 00:00:00.0000,      69.183891, -1.964002143304871E+00,  1.197522993169459E+00, -5.419311770669593E-02, -4.787630495035133E-03, -1.063406887362044E-02, -3.246113070666486E-04,
2459585.500000000, A.D. 2022-Jan-06 00:00:00.0000,      69.184038, -1.987335077615046E+00,  1.143990023871976E+00, -5.579925113609433E-02, -4.544680713889335E-03, -1.077824494199419E-02, -3.177982606870482E-04,
2459590.500000000, A.D. 2022-Jan-11 00:00:00.0000,      69.184184, -2.009440397295880E+00,  1.089749455451860E+00, -5.737066245341224E-02, -4.296599342270658E-03, -1.091707395180986E-02, -3.107225085512780E-04,
2459595.500000000, A.D. 2022-Jan-16 00:00:00.0000,      69.184327, -2.030292672409383E+00,  1.034828542599140E+00, -5.890603908706359E-02, -4.043479101597331E-03, -1.105034799012045E-02, -3.033844865652358E-04,
2459600.500000000, A.D. 2022-Jan-21 00:00:00.0000,      69.184466, -2.049866959599626E+00,  9.792555815522822E-01, -6.040407145394721E-02, -3.785421950882994E-03, -1.117785841683200E-02, -2.957849569313846E-04,
2459605.500000000, A.D. 2022-Jan-26 00:00:00.0000,      69.184604, -2.068138848984596E+00,  9.230599127161857E-01, -6.186345463180391E-02, -3.522539366109659E-03, -1.129939627631561E-02, -2.879250245222288E-04,
2459610.500000000, A.D. 2022-Jan-31 00:00:00.0000,      69.184738, -2.085084512408295E+00,  8.662719211547001E-01, -6.328289011348801E-02, -3.254952604119544E-03, -1.141475273598908E-02, -2.798061531996048E-04,
2459615.500000000, A.D. 2022-Feb-05 00:00:00.0000,      69.184867, -2.100680752963245E+00,  8.089230348210849E-01, -6.466108764166283E-02, -2.982792946198958E-03, -1.152371955285993E-02, -2.714301815899893E-04,
2459620.500000000, A.D. 2022-Feb-10 00:00:00.0000,      69.184988, -2.114905055674142E+00,  7.510457203823456E-01, -6.599676712047739E-02, -2.706201918761628E-03, -1.162608956957068E-02, -2.627993381098105E-04,
2459625.500000000, A.D. 2022-Feb-15 00:00:00.0000,      69.185100, -2.127735639225868E+00,  6.926734764897731E-01, -6.728866060077963E-02, -2.425331490208625E-03, -1.172165723967348E-02, -2.539162553775693E-04,
2459630.500000000, A.D. 2022-Feb-20 00:00:00.0000,      69.185203, -2.139151508612332E+00,  6.338408243528866E-01, -6.853551433593412E-02, -2.140344241954415E-03, -1.181021918077352E-02, -2.447839840275812E-04,
2459635.500000000, A.D. 2022-Feb-25 00:00:00.0000,      69.185298, -2.149132508570032E+00,  5.745832954804311E-01, -6.973609090497279E-02, -1.851413510825331E-03, -1.189157475438180E-02, -2.354060058130503E-04,
2459640.500000000, A.D. 2022-Mar-02 00:00:00.0000,      69.185385, -2.157659377646545E+00,  5.149374164580118E-01, -7.088917139935694E-02, -1.558723500212329E-03, -1.196552667113298E-02, -2.257862459439781E-04,
2459645.500000000, A.D. 2022-Mar-07 00:00:00.0000,      69.185461, -2.164713802741182E+00,  4.549406906400931E-01, -7.199355766945167E-02, -1.262469357310252E-03, -1.203188161947213E-02, -2.159290846231673E-04,
2459650.500000000, A.D. 2022-Mar-12 00:00:00.0000,      69.185525, -2.170278473940780E+00,  3.946315766443959E-01, -7.304807462645382E-02, -9.628572133994192E-04, -1.209045091564665E-02, -2.058393676639690E-04,
2459655.500000000, A.D. 2022-Mar-17 00:00:00.0000,      69.185576, -2.174337139457848E+00,  3.340494635474676E-01, -7.405157259471717E-02, -6.601041839825947E-04, -1.214105117289910E-02, -1.955224159964173E-04,
2459660.500000000, A.D. 2022-Mar-22 00:00:00.0000,      69.185615, -2.176874660462819E+00,  2.732346426907616E-01, -7.500292970839814E-02, -3.544383258407955E-04, -1.218350498769164E-02, -1.849840338569195E-04,
2459665.500000000, A.D. 2022-Mar-27 00:00:00.0000,      69.185644, -2.177877065588530E+00,  2.122282760180459E-01, -7.590105434538777E-02, -4.609854847295368E-05, -1.221764164050258E-02, -1.742305154879550E-04,
2459670.500000000, A.D. 2022-Apr-01 00:00:00.0000,      69.185661, -2.177331604873258E+00,  1.510723608784426E-01, -7.674488759073927E-02,  2.646655222574837E-04, -1.224329780823746E-02, -1.632686502177220E-04,
2459675.500000000, A.D. 2022-Apr-06 00:00:00.0000,      69.185666, -2.175226802898315E+00,  8.980969124556080E-02, -7.753340572121388E-02,  5.775937302847777E-04, -1.226031828476193E-02, -1.521057258091462E-04,
2459680.500000000, A.D. 2022-Apr-11 00:00:00.0000,      69.185658, -2.171552510866136E+00,  2.848381532166699E-02, -7.826562270200688E-02,  8.924156273031859E-04, -1.226855670568734E-02, -1.407495299641231E-04,
2459685.500000000, A.D. 2022-Apr-16 00:00:00.0000,      69.185636, -2.166299957355236E+00, -3.286101048433011E-02, -7.894059268617103E-02,  1.208850764317077E-03, -1.226787627338652E-02, -1.292083498860627E-04,
2459690.500000000, A.D. 2022-Apr-21 00:00:00.0000,      69.185602, -2.159461797480961E+00, -9.417987119600346E-02, -7.955741250691807E-02,  1.526609037871975E-03, -1.225815047810768E-02, -1.174909698704195E-04,
2459695.500000000, A.D. 2022-Apr-26 00:00:00.0000,      69.185557, -2.151032160187700E+00, -1.554272464948638E-01, -8.011522415296018E-02,  1.845391091280238E-03, -1.223926381054958E-02, -1.056066669219301E-04,
2459700.500000000, A.D. 2022-May-01 00:00:00.0000,      69.185503, -2.141006693396139E+00, -2.165570674761109E-01, -8.061321721670410E-02,  2.164888771605350E-03, -1.221111246046360E-02, -9.356520423062363E-05,
2459705.500000000, A.D. 2022-May-06 00:00:00.0000,      69.185437, -2.129382606722783E+00, -2.775227768511026E-01, -8.105063130377836E-02,  2.484785644049387E-03, -1.217360499590648E-02, -8.137682217393257E-05,
2459710.500000000, A.D. 2022-May-11 00:00:00.0000,      69.185360, -2.116158711481661E+00, -3.382773924881594E-01, -8.142675839090316E-02,  2.804757564698245E-03, -1.212666301864065E-02, -6.905222664467727E-05,
2459715.500000000, A.D. 2022-May-16 00:00:00.0000,      69.185272, -2.101335457678152E+00, -3.987735741622720E-01, -8.174094511888123E-02,  3.124473310592094E-03, -1.207022179157920E-02, -5.660257480679178E-05,
